[{"OBJECT_NAME":"TRANSPORTER-15 OBJECT C","OBJECT_ID":"2025-276C","EPOCH":"2026-03-09T17:56:22.913088","MEAN_MOTION":15.22195559,"ECCENTRICITY":0.00067905,"INCLINATION":97.4128,"RA_OF_ASC_NODE":143.9755,"ARG_OF_PERICENTER":5.1753,"MEAN_ANOMALY":354.9553,"EPHEMERIS_TYPE":0,"CLASSIFICATION_TYPE":"U","NORAD_CAT_ID":66668,"ELEMENT_SET_NO":999,"REV_AT_EPOCH":1533,"BSTAR":0.0013438378,"MEAN_MOTION_DOT":0.00030911,"MEAN_MOTION_DDOT":0},{"OBJECT_NAME":"CZ-4C DEB","OBJECT_ID":"2015-069C","EPOCH":"2026-03-07T10:00:21.558816","MEAN_MOTION":15.31048021,"ECCENTRICITY":0.00583916,"INCLINATION":97.4862,"RA_OF_ASC_NODE":135.8649,"ARG_OF_PERICENTER":162.5456,"MEAN_ANOMALY":197.781,"EPHEMERIS_TYPE":0,"CLASSIFICATION_TYPE":"U","NORAD_CAT_ID":42670,"ELEMENT_SET_NO":999,"REV_AT_EPOCH":51749,"BSTAR":0.00045809658,"MEAN_MOTION_DOT":0.00014416,"MEAN_MOTION_DDOT":0}]
